CCSDS_OMM_VERS = 2.0
CREATION_DATE  = 
ORIGINATOR     = 

OBJECT_NAME    = STARLINK-37093
OBJECT_ID      = 2026-050AD
CENTER_NAME    = EARTH
REF_FRAME      = TEME
TIME_SYSTEM    = UTC
MEAN_ELEMENT_THEORY = SGP/SGP4

EPOCH          = 2026-03-24T04:00:01.999584
MEAN_MOTION    = 15.82337452
ECCENTRICITY   = .00009658
INCLINATION    = 53.1606
RA_OF_ASC_NODE = 209.0864
ARG_OF_PERICENTER = 65.0949
MEAN_ANOMALY   = 35.0581

EPHEMERIS_TYPE = 0
CLASSIFICATION_TYPE = U
NORAD_CAT_ID   = 68194
ELEMENT_SET_NO = 999
REV_AT_EPOCH   = 276
BSTAR          = -.8703309E-2
MEAN_MOTION_DOT = -.1607676E-1
MEAN_MOTION_DDOT = 0

CCSDS_OMM_VERS = 2.0
CREATION_DATE  = 
ORIGINATOR     = 

OBJECT_NAME    = STARLINK-37058
OBJECT_ID      = 2026-050AE
CENTER_NAME    = EARTH
REF_FRAME      = TEME
TIME_SYSTEM    = UTC
MEAN_ELEMENT_THEORY = SGP/SGP4

EPOCH          = 2026-03-24T04:00:01.999584
MEAN_MOTION    = 15.83058395
ECCENTRICITY   = .00008054
INCLINATION    = 53.1602
RA_OF_ASC_NODE = 209.0537
ARG_OF_PERICENTER = 74.9136
MEAN_ANOMALY   = 41.0482

EPHEMERIS_TYPE = 0
CLASSIFICATION_TYPE = U
NORAD_CAT_ID   = 68195
ELEMENT_SET_NO = 999
REV_AT_EPOCH   = 276
BSTAR          = -.83800926E-2
MEAN_MOTION_DOT = -.1602607E-1
MEAN_MOTION_DDOT = 0

CCSDS_OMM_VERS = 2.0
CREATION_DATE  = 
ORIGINATOR     = 

OBJECT_NAME    = YAOGAN-50 02
OBJECT_ID      = 2026-051A
CENTER_NAME    = EARTH
REF_FRAME      = TEME
TIME_SYSTEM    = UTC
MEAN_ELEMENT_THEORY = SGP/SGP4

EPOCH          = 2026-03-23T03:42:07.837632
MEAN_MOTION    = 13.86715862
ECCENTRICITY   = .0072646
INCLINATION    = 142.0896
RA_OF_ASC_NODE = 272.3766
ARG_OF_PERICENTER = 159.3966
MEAN_ANOMALY   = 200.9696

EPHEMERIS_TYPE = 0
CLASSIFICATION_TYPE = U
NORAD_CAT_ID   = 68196
ELEMENT_SET_NO = 999
REV_AT_EPOCH   = 107
BSTAR          = .60453E-4
MEAN_MOTION_DOT = .263E-5
MEAN_MOTION_DDOT = 0

CCSDS_OMM_VERS = 2.0
CREATION_DATE  = 
ORIGINATOR     = 

OBJECT_NAME    = CZ-6A R/B
OBJECT_ID      = 2026-051B
CENTER_NAME    = EARTH
REF_FRAME      = TEME
TIME_SYSTEM    = UTC
MEAN_ELEMENT_THEORY = SGP/SGP4

EPOCH          = 2026-03-23T18:31:14.964672
MEAN_MOTION    = 14.56364371
ECCENTRICITY   = .01860668
INCLINATION    = 142.0320
RA_OF_ASC_NODE = 278.9006
ARG_OF_PERICENTER = 151.7732
MEAN_ANOMALY   = 209.3218

EPHEMERIS_TYPE = 0
CLASSIFICATION_TYPE = U
NORAD_CAT_ID   = 68197
ELEMENT_SET_NO = 999
REV_AT_EPOCH   = 121
BSTAR          = .15477719E-3
MEAN_MOTION_DOT = .1182E-4
MEAN_MOTION_DDOT = 0

CCSDS_OMM_VERS = 2.0
CREATION_DATE  = 
ORIGINATOR     = 

OBJECT_NAME    = 2026-052A
OBJECT_ID      = 2026-052A
CENTER_NAME    = EARTH
REF_FRAME      = TEME
TIME_SYSTEM    = UTC
MEAN_ELEMENT_THEORY = SGP/SGP4

EPOCH          = 2026-03-24T07:16:32.160864
MEAN_MOTION    = 15.09907705
ECCENTRICITY   = .00127476
INCLINATION    = 97.5363
RA_OF_ASC_NODE = 159.4237
ARG_OF_PERICENTER = 235.3879
MEAN_ANOMALY   = 124.6149

EPHEMERIS_TYPE = 0
CLASSIFICATION_TYPE = U
NORAD_CAT_ID   = 68198
ELEMENT_SET_NO = 999
REV_AT_EPOCH   = 123
BSTAR          = .41983611E-3
MEAN_MOTION_DOT = .6754E-4
MEAN_MOTION_DDOT = 0

CCSDS_OMM_VERS = 2.0
CREATION_DATE  = 
ORIGINATOR     = 

OBJECT_NAME    = YUXING-3 06
OBJECT_ID      = 2026-052B
CENTER_NAME    = EARTH
REF_FRAME      = TEME
TIME_SYSTEM    = UTC
MEAN_ELEMENT_THEORY = SGP/SGP4

EPOCH          = 2026-03-24T05:39:56.150784
MEAN_MOTION    = 15.10037985
ECCENTRICITY   = .00118252
INCLINATION    = 97.5367
RA_OF_ASC_NODE = 159.3590
ARG_OF_PERICENTER = 236.7086
MEAN_ANOMALY   = 123.3011

EPHEMERIS_TYPE = 0
CLASSIFICATION_TYPE = U
NORAD_CAT_ID   = 68199
ELEMENT_SET_NO = 999
REV_AT_EPOCH   = 122
BSTAR          = .32138108E-3
MEAN_MOTION_DOT = .5172E-4
MEAN_MOTION_DDOT = 0

CCSDS_OMM_VERS = 2.0
CREATION_DATE  = 
ORIGINATOR     = 

OBJECT_NAME    = 2026-052C
OBJECT_ID      = 2026-052C
CENTER_NAME    = EARTH
REF_FRAME      = TEME
TIME_SYSTEM    = UTC
MEAN_ELEMENT_THEORY = SGP/SGP4

EPOCH          = 2026-03-24T07:14:19.377024
MEAN_MOTION    = 15.10168552
ECCENTRICITY   = .00115575
INCLINATION    = 97.5360
RA_OF_ASC_NODE = 159.4256
ARG_OF_PERICENTER = 239.2112
MEAN_ANOMALY   = 120.7980

EPHEMERIS_TYPE = 0
CLASSIFICATION_TYPE = U
NORAD_CAT_ID   = 68200
ELEMENT_SET_NO = 999
REV_AT_EPOCH   = 122
BSTAR          = .28612912E-3
MEAN_MOTION_DOT = .4613E-4
MEAN_MOTION_DDOT = 0

CCSDS_OMM_VERS = 2.0
CREATION_DATE  = 
ORIGINATOR     = 

OBJECT_NAME    = 2026-052D
OBJECT_ID      = 2026-052D
CENTER_NAME    = EARTH
REF_FRAME      = TEME
TIME_SYSTEM    = UTC
MEAN_ELEMENT_THEORY = SGP/SGP4

EPOCH          = 2026-03-23T04:11:15.595584
MEAN_MOTION    = 15.10349642
ECCENTRICITY   = .00106232
INCLINATION    = 97.5345
RA_OF_ASC_NODE = 158.3130
ARG_OF_PERICENTER = 243.8917
MEAN_ANOMALY   = 116.1220

EPHEMERIS_TYPE = 0
CLASSIFICATION_TYPE = U
NORAD_CAT_ID   = 68201
ELEMENT_SET_NO = 999
REV_AT_EPOCH   = 106
BSTAR          = .98769632E-3
MEAN_MOTION_DOT = .16184E-3
MEAN_MOTION_DDOT = 0

CCSDS_OMM_VERS = 2.0
CREATION_DATE  = 
ORIGINATOR     = 

OBJECT_NAME    = 2026-052E
OBJECT_ID      = 2026-052E
CENTER_NAME    = EARTH
REF_FRAME      = TEME
TIME_SYSTEM    = UTC
MEAN_ELEMENT_THEORY = SGP/SGP4

EPOCH          = 2026-03-23T02:35:50.422272
MEAN_MOTION    = 15.10329913
ECCENTRICITY   = .00105426
INCLINATION    = 97.5365
RA_OF_ASC_NODE = 158.2509
ARG_OF_PERICENTER = 240.2924
MEAN_ANOMALY   = 119.7257

EPHEMERIS_TYPE = 0
CLASSIFICATION_TYPE = U
NORAD_CAT_ID   = 68202
ELEMENT_SET_NO = 999
REV_AT_EPOCH   = 105
BSTAR          = .44376548E-3
MEAN_MOTION_DOT = .7223E-4
MEAN_MOTION_DDOT = 0

CCSDS_OMM_VERS = 2.0
CREATION_DATE  = 
ORIGINATOR     = 

OBJECT_NAME    = 2026-052F
OBJECT_ID      = 2026-052F
CENTER_NAME    = EARTH
REF_FRAME      = TEME
TIME_SYSTEM    = UTC
MEAN_ELEMENT_THEORY = SGP/SGP4

EPOCH          = 2026-03-24T07:11:08.990304
MEAN_MOTION    = 15.10606323
ECCENTRICITY   = .00098586
INCLINATION    = 97.5362
RA_OF_ASC_NODE = 159.4308
ARG_OF_PERICENTER = 231.7843
MEAN_ANOMALY   = 128.2500

EPHEMERIS_TYPE = 0
CLASSIFICATION_TYPE = U
NORAD_CAT_ID   = 68203
ELEMENT_SET_NO = 999
REV_AT_EPOCH   = 123
BSTAR          = .44759452E-3
MEAN_MOTION_DOT = .7341E-4
MEAN_MOTION_DDOT = 0

CCSDS_OMM_VERS = 2.0
CREATION_DATE  = 
ORIGINATOR     = 

OBJECT_NAME    = 2026-052G
OBJECT_ID      = 2026-052G
CENTER_NAME    = EARTH
REF_FRAME      = TEME
TIME_SYSTEM    = UTC
MEAN_ELEMENT_THEORY = SGP/SGP4

EPOCH          = 2026-03-24T07:10:46.116768
MEAN_MOTION    = 15.10653851
ECCENTRICITY   = .0009463
INCLINATION    = 97.5369
RA_OF_ASC_NODE = 159.4268
ARG_OF_PERICENTER = 234.8824
MEAN_ANOMALY   = 125.1520

EPHEMERIS_TYPE = 0
CLASSIFICATION_TYPE = U
NORAD_CAT_ID   = 68204
ELEMENT_SET_NO = 999
REV_AT_EPOCH   = 123
BSTAR          = .45396545E-3
MEAN_MOTION_DOT = .7456E-4
MEAN_MOTION_DDOT = 0

CCSDS_OMM_VERS = 2.0
CREATION_DATE  = 
ORIGINATOR     = 

OBJECT_NAME    = KZ-11 R/B
OBJECT_ID      = 2026-052H
CENTER_NAME    = EARTH
REF_FRAME      = TEME
TIME_SYSTEM    = UTC
MEAN_ELEMENT_THEORY = SGP/SGP4

EPOCH          = 2026-03-24T06:24:23.812992
MEAN_MOTION    = 14.66965354
ECCENTRICITY   = .05475832
INCLINATION    = 97.3413
RA_OF_ASC_NODE = 159.0463
ARG_OF_PERICENTER = 346.8031
MEAN_ANOMALY   = 11.9317

EPHEMERIS_TYPE = 0
CLASSIFICATION_TYPE = U
NORAD_CAT_ID   = 68205
ELEMENT_SET_NO = 999
REV_AT_EPOCH   = 119
BSTAR          = .45493112E-3
MEAN_MOTION_DOT = .30529E-3
MEAN_MOTION_DDOT = .1882657E-5

